{
  "type": "FeatureCollection",
  "features": [
    {
      "type": "Feature",
      "properties": {
        "norad_id": 43719,
        "name": "HYSIS",
        "group": "resource",
        "lat": -1.734681642332104,
        "lon": 41.919745593893644,
        "alt_km": 636.5148247065881,
        "timestamp": "2025-12-04T15:47:53.753765+00:00",
        "meta_object_name": "HYSIS",
        "meta_object_id": "2018-096A",
        "meta_epoch": "2025-12-04T04:26:13.949088",
        "meta_mean_motion": 14.78604484,
        "meta_eccentricity": 0.00016193,
        "meta_inclination": 98.0109,
        "meta_ra_of_asc_node": 41.2043,
        "meta_arg_of_pericenter": 66.1822,
        "meta_mean_anomaly": 293.9558,
        "meta_ephemeris_type": 0,
        "meta_classification_type": "U",
        "meta_norad_cat_id": 43719,
        "meta_element_set_no": 999,
        "meta_rev_at_epoch": 37860,
        "meta_bstar": 3.4978038e-05,
        "meta_mean_motion_dot": 2.04e-06,
        "meta_mean_motion_ddot": 0,
        "tle_line1": "1 43719U 18096A   25338.18488367  .00000204  00000+0  34978-4 0  9994",
        "tle_line2": "2 43719  98.0109  41.2043 0001619  66.1822 293.9558 14.78604484378600"
      },
      "geometry": {
        "type": "Point",
        "coordinates": [
          41.919745593893644,
          -1.734681642332104
        ]
      }
    },
    {
      "type": "Feature",
      "properties": {
        "norad_id": 43783,
        "name": "KAZSTSAT",
        "group": "resource",
        "lat": -6.622800847481586,
        "lon": 15.061926811345574,
        "alt_km": 568.4287902386495,
        "timestamp": "2025-12-04T15:47:53.753775+00:00",
        "meta_object_name": "KAZSTSAT",
        "meta_object_id": "2018-099AB",
        "meta_epoch": "2025-12-04T01:24:44.238240",
        "meta_mean_motion": 14.99307288,
        "meta_eccentricity": 0.00064904,
        "meta_inclination": 97.4553,
        "meta_ra_of_asc_node": 13.6171,
        "meta_arg_of_pericenter": 2.5271,
        "meta_mean_anomaly": 357.5985,
        "meta_ephemeris_type": 0,
        "meta_classification_type": "U",
        "meta_norad_cat_id": 43783,
        "meta_element_set_no": 999,
        "meta_rev_at_epoch": 38206,
        "meta_bstar": 0.00027331739,
        "meta_mean_motion_dot": 3.283e-05,
        "meta_mean_motion_ddot": 0,
        "tle_line1": "1 43783U 18099AB  25338.05884535  .00003283  00000+0  27332-3 0  9996",
        "tle_line2": "2 43783  97.4553  13.6171 0006490   2.5271 357.5985 14.99307288382067"
      },
      "geometry": {
        "type": "Point",
        "coordinates": [
          15.061926811345574,
          -6.622800847481586
        ]
      }
    },
    {
      "type": "Feature",
      "properties": {
        "norad_id": 43831,
        "name": "SAUDISAT 5A",
        "group": "resource",
        "lat": 3.4638272195708795,
        "lon": 38.55961737688116,
        "alt_km": 492.9235086209883,
        "timestamp": "2025-12-04T15:47:53.753787+00:00",
        "meta_object_name": "SAUDISAT 5A",
        "meta_object_id": "2018-102A",
        "meta_epoch": "2025-12-04T07:54:41.937984",
        "meta_mean_motion": 15.25494375,
        "meta_eccentricity": 0.00117851,
        "meta_inclination": 97.337,
        "meta_ra_of_asc_node": 38.6842,
        "meta_arg_of_pericenter": 102.0395,
        "meta_mean_anomaly": 258.2165,
        "meta_ephemeris_type": 0,
        "meta_classification_type": "U",
        "meta_norad_cat_id": 43831,
        "meta_element_set_no": 999,
        "meta_rev_at_epoch": 38594,
        "meta_bstar": 0.00056901189,
        "meta_mean_motion_dot": 0.00014381,
        "meta_mean_motion_ddot": 0,
        "tle_line1": "1 43831U 18102A   25338.32965206  .00014381  00000+0  56901-3 0  9995",
        "tle_line2": "2 43831  97.3370  38.6842 0011785 102.0395 258.2165 15.25494375385946"
      },
      "geometry": {
        "type": "Point",
        "coordinates": [
          38.55961737688116,
          3.4638272195708795
        ]
      }
    },
    {
      "type": "Feature",
      "properties": {
        "norad_id": 43833,
        "name": "SAUDISAT 5B",
        "group": "resource",
        "lat": 45.0089935289064,
        "lon": 34.315092499871575,
        "alt_km": 479.83808985764335,
        "timestamp": "2025-12-04T15:47:53.753798+00:00",
        "meta_object_name": "SAUDISAT 5B",
        "meta_object_id": "2018-102C",
        "meta_epoch": "2025-12-04T07:43:48.621792",
        "meta_mean_motion": 15.25851781,
        "meta_eccentricity": 0.00124995,
        "meta_inclination": 97.3466,
        "meta_ra_of_asc_node": 41.4001,
        "meta_arg_of_pericenter": 104.6378,
        "meta_mean_anomaly": 255.6247,
        "meta_ephemeris_type": 0,
        "meta_classification_type": "U",
        "meta_norad_cat_id": 43833,
        "meta_element_set_no": 999,
        "meta_rev_at_epoch": 38605,
        "meta_bstar": 0.00054318554,
        "meta_mean_motion_dot": 0.00013876,
        "meta_mean_motion_ddot": 0,
        "tle_line1": "1 43833U 18102C   25338.32209053  .00013876  00000+0  54319-3 0  9997",
        "tle_line2": "2 43833  97.3466  41.4001 0012499 104.6378 255.6247 15.25851781386058"
      },
      "geometry": {
        "type": "Point",
        "coordinates": [
          34.315092499871575,
          45.0089935289064
        ]
      }
    },
    {
      "type": "Feature",
      "properties": {
        "norad_id": 44622,
        "name": "GAOFEN-10R",
        "group": "resource",
        "lat": 17.19031844268918,
        "lon": 108.63560524946023,
        "alt_km": 622.0516663786284,
        "timestamp": "2025-12-04T15:47:53.753809+00:00",
        "meta_object_name": "GAOFEN-10R",
        "meta_object_id": "2019-066A",
        "meta_epoch": "2025-12-04T08:35:24.135936",
        "meta_mean_motion": 14.82746176,
        "meta_eccentricity": 0.00082506,
        "meta_inclination": 98.0265,
        "meta_ra_of_asc_node": 285.8322,
        "meta_arg_of_pericenter": 64.9461,
        "meta_mean_anomaly": 295.2607,
        "meta_ephemeris_type": 0,
        "meta_classification_type": "U",
        "meta_norad_cat_id": 44622,
        "meta_element_set_no": 999,
        "meta_rev_at_epoch": 33350,
        "meta_bstar": 0.00050604469,
        "meta_mean_motion_dot": 4.036e-05,
        "meta_mean_motion_ddot": 0,
        "tle_line1": "1 44622U 19066A   25338.35791824  .00004036  00000+0  50604-3 0  9990",
        "tle_line2": "2 44622  98.0265 285.8322 0008250  64.9461 295.2607 14.82746176333506"
      },
      "geometry": {
        "type": "Point",
        "coordinates": [
          108.63560524946023,
          17.19031844268918
        ]
      }
    },
    {
      "type": "Feature",
      "properties": {
        "norad_id": 44804,
        "name": "CARTOSAT-3",
        "group": "resource",
        "lat": -14.868577740250881,
        "lon": 40.33728544717047,
        "alt_km": 518.679178743545,
        "timestamp": "2025-12-04T15:47:53.753819+00:00",
        "meta_object_name": "CARTOSAT-3",
        "meta_object_id": "2019-081A",
        "meta_epoch": "2025-12-04T07:57:38.085120",
        "meta_mean_motion": 15.19255431,
        "meta_eccentricity": 0.0013896,
        "meta_inclination": 97.4601,
        "meta_ra_of_asc_node": 38.0211,
        "meta_arg_of_pericenter": 113.6726,
        "meta_mean_anomaly": 246.5969,
        "meta_ephemeris_type": 0,
        "meta_classification_type": "U",
        "meta_norad_cat_id": 44804,
        "meta_element_set_no": 999,
        "meta_rev_at_epoch": 33388,
        "meta_bstar": 0.00034728,
        "meta_mean_motion_dot": 7.272e-05,
        "meta_mean_motion_ddot": 0,
        "tle_line1": "1 44804U 19081A   25338.33169080  .00007272  00000+0  34728-3 0  9994",
        "tle_line2": "2 44804  97.4601  38.0211 0013896 113.6726 246.5969 15.19255431333889"
      },
      "geometry": {
        "type": "Point",
        "coordinates": [
          40.33728544717047,
          -14.868577740250881
        ]
      }
    },
    {
      "type": "Feature",
      "properties": {
        "norad_id": 44819,
        "name": "GAOFEN-12 01",
        "group": "resource",
        "lat": 48.12742568635701,
        "lon": 173.96232491685296,
        "alt_km": 623.8236392041563,
        "timestamp": "2025-12-04T15:47:53.753830+00:00",
        "meta_object_name": "GAOFEN-12 01",
        "meta_object_id": "2019-082A",
        "meta_epoch": "2025-12-04T07:05:53.208672",
        "meta_mean_motion": 14.80642396,
        "meta_eccentricity": 0.00012381,
        "meta_inclination": 97.8128,
        "meta_ra_of_asc_node": 344.7984,
        "meta_arg_of_pericenter": 292.2965,
        "meta_mean_anomaly": 67.8116,
        "meta_ephemeris_type": 0,
        "meta_classification_type": "U",
        "meta_norad_cat_id": 44819,
        "meta_element_set_no": 999,
        "meta_rev_at_epoch": 32525,
        "meta_bstar": 0.00014179471,
        "meta_mean_motion_dot": 1.038e-05,
        "meta_mean_motion_ddot": 0,
        "tle_line1": "1 44819U 19082A   25338.29575473  .00001038  00000+0  14179-3 0  9995",
        "tle_line2": "2 44819  97.8128 344.7984 0001238 292.2965  67.8116 14.80642396325250"
      },
      "geometry": {
        "type": "Point",
        "coordinates": [
          173.96232491685296,
          48.12742568635701
        ]
      }
    }
  ]
}